OBJECT_NAME,OBJECT_ID,EPOCH,MEAN_MOTION,ECCENTRICITY,INCLINATION,RA_OF_ASC_NODE,ARG_OF_PERICENTER,MEAN_ANOMALY,EPHEMERIS_TYPE,CLASSIFICATION_TYPE,NORAD_CAT_ID,ELEMENT_SET_NO,REV_AT_EPOCH,BSTAR,MEAN_MOTION_DOT,MEAN_MOTION_DDOT
TEVEL2-8,2025-052AF,2026-06-06T14:53:34.041696,15.31268208,.0006811,97.3947,52.8668,162.3481,197.7998,0,U,63239,999,6840,.62937E-3,.18969E-3,0
FORESAIL-1 PRIME,2025-276DS,2026-06-06T10:54:01.714464,15.18604799,.00036299,97.4199,230.9223,125.6883,234.4690,0,U,66778,999,2877,.29553438E-3,.6049E-4,0
